{"type":"FeatureCollection","features":[{"type":"Feature","id":12,"geometry":{"type":"Polygon","coordinates":[[[-75.493267863634543,39.757107014805349],[-75.49363386333242,39.756923014154204],[-75.4942858632606,39.756599014109689],[-75.494751863415928,39.756412014215179],[-75.49513286408073,39.756261014088672],[-75.495744863825919,39.756051014171852],[-75.496051863972582,39.755947014311438],[-75.496103863851118,39.755939014368806],[-75.496274864453667,39.755885014041027],[-75.496553864112926,39.755798013845961],[-75.497592864553681,39.755456014038288],[-75.498207864671912,39.755254013762041],[-75.498399865190862,39.755191014245312],[-75.49867886485012,39.755104013864212],[-75.499973865383922,39.754687013965139],[-75.500631865159846,39.754479013421275],[-75.502011866082469,39.754037013374074],[-75.502068865983873,39.75401401358927],[-75.502098866121116,39.754001013317179],[-75.502190866182616,39.753965013241469],[-75.502221866144751,39.753954013694212],[-75.502250865558779,39.753948013563708],[-75.502339866145533,39.753933013235162],[-75.502369866282763,39.753928013815504],[-75.502831866240129,39.753788013343801],[-75.504018866818896,39.753429013418796],[-75.504220866485255,39.753379013315431],[-75.50453786667768,39.753301012998811],[-75.504692866488369,39.753279012999776],[-75.504823866907927,39.753258013025572],[-75.505005866482819,39.753222013252191],[-75.505621867324265,39.753149012924936],[-75.505891866762695,39.753112013060658],[-75.50641086751979,39.753065013521741],[-75.506791867286282,39.753029012956844],[-75.507546867146601,39.753003013419644],[-75.509751868249751,39.752755013143918],[-75.509843868311265,39.752743012673506],[-75.510827868500442,39.752663012937084],[-75.511979868919113,39.752644012856564],[-75.512239869210106,39.752652013181901],[-75.512721869258954,39.752694012802792],[-75.512979869001811,39.752648013019353],[-75.513681869158702,39.752728012773147],[-75.514176869626326,39.752816012740368],[-75.514773870201211,39.752913012927095],[-75.514759869957516,39.753086012864188],[-75.514980869890465,39.753216013057923],[-75.515645870237407,39.753608012911172],[-75.51578387032967,39.753690012982432],[-75.515868869820167,39.753738012810395],[-75.515897870132491,39.75375401320607],[-75.515983870346204,39.753819012703225],[-75.516032870749996,39.75385501285524],[-75.516253870682945,39.753989013063837],[-75.516342870371389,39.754046012867377],[-75.516462870022011,39.754123013011757],[-75.516696870373735,39.754432013433821],[-75.51686887080119,39.754612013094373],[-75.517188870468317,39.754947012898469],[-75.517434870515615,39.755266013104375],[-75.51751387105665,39.755501013328534],[-75.517536870622862,39.75578101323935],[-75.517544871018799,39.756009013144826],[-75.517535870797971,39.75629701365493],[-75.517564871110267,39.756638013447606],[-75.517606870943069,39.756928013356422],[-75.517629871407607,39.757089013855044],[-75.517757871454108,39.757469013427922],[-75.51789487082317,39.757747013692047],[-75.517925870785291,39.757810013633183],[-75.51822087123638,39.758249013760725],[-75.519328871274126,39.759753014235358],[-75.518884871758431,39.759959014175479],[-75.518897871278924,39.759979014244124],[-75.518927871416139,39.760129013883223],[-75.518942871484754,39.760382014182326],[-75.518856871271026,39.760580014218498],[-75.518837871902761,39.760597014331033],[-75.519113872087289,39.760958014024901],[-75.519243871783644,39.761128014028735],[-75.519512872295465,39.761481014402271],[-75.519634871595898,39.761641014705312],[-75.519765872015455,39.761812014311737],[-75.519554872128253,39.761907014446734],[-75.518947871507621,39.762185014750216],[-75.518924871941408,39.762195014462023],[-75.518714871879112,39.762292014560465],[-75.518432871846812,39.762420014844338],[-75.518380871968276,39.762444014482597],[-75.518137871395723,39.762556014755724],[-75.517378871337442,39.762903014673498],[-75.517067870992818,39.763047014820501],[-75.517045871251497,39.763057015097672],[-75.517062870969937,39.763105014612421],[-75.517103870977834,39.763248015140732],[-75.517112871198663,39.763277014612903],[-75.517311871390291,39.763634015233855],[-75.517342871352426,39.763793014798601],[-75.517346871550387,39.763814015013367],[-75.517344871002251,39.763947015303863],[-75.517350871748349,39.763993015136883],[-75.51735887124596,39.764046014756289],[-75.517361871619002,39.764211015368687],[-75.517365870918653,39.764381014937435],[-75.517407871649766,39.764463015302404],[-75.51746387172625,39.764501015152106],[-75.517586871749899,39.764554015070964],[-75.517681871286129,39.764562015393942],[-75.517777871545618,39.764586014976182],[-75.517887871150464,39.764614015398934],[-75.517975871912327,39.764674014984138],[-75.518025871242727,39.764708015255266],[-75.518053871730132,39.76477401532744],[-75.518072871996708,39.764855015360915],[-75.518061871227729,39.764923015017096],[-75.518090871540053,39.765073014935155],[-75.518084871692267,39.765172015530631],[-75.518052871905226,39.765763015182714],[-75.51815787148719,39.765963015322853],[-75.518204871342874,39.766178015308888],[-75.518226871982506,39.766557015296939],[-75.518133872096072,39.766728015814692],[-75.517973871364177,39.767026015390989],[-75.517933872079524,39.767145015308621],[-75.517938872102405,39.767218015301367],[-75.517967871516404,39.767230015321118],[-75.518021871943077,39.767254015354396],[-75.518051872080306,39.7672760157228],[-75.518077872019589,39.767295015909752],[-75.518161871685166,39.767378015393064],[-75.518200872043224,39.767426015348072],[-75.518257871944641,39.767482015943742],[-75.518308871998258,39.767522015848186],[-75.518350871831061,39.767561015905216],[-75.518370871922542,39.767613015716748],[-75.518397871686716,39.767637015616515],[-75.518434871496638,39.76767001598288],[-75.518634872411496,39.767754015525938],[-75.518703872008459,39.76778701583622],[-75.518772871605435,39.767813016006798],[-75.518842871925642,39.767845015778299],[-75.518914871895674,39.76786801577753],[-75.519049872513179,39.767906015819499],[-75.51911787228525,39.76793401558259],[-75.519185872057321,39.767973015406234],[-75.519247871981591,39.768005015793861],[-75.519310872629092,39.768034016024458],[-75.519363872332562,39.768060015411265],[-75.51941687203599,39.768081015705533],[-75.519473871937393,39.768103015809665],[-75.51952787236408,39.768124015400325],[-75.519598872509192,39.768146015490721],[-75.519643872715022,39.768149015628055],[-75.519812872769435,39.76814401585942],[-75.520216872102168,39.76827501575373],[-75.521109872953076,39.768566015491501],[-75.521200873189656,39.768567015991515],[-75.521437873016126,39.768637015741483],[-75.521549873169121,39.768671015436581],[-75.521713873200653,39.768733015933961],[-75.521841873247169,39.768774015608521],[-75.522171872960044,39.768892015461908],[-75.52235187288511,39.768956016058503],[-75.522495872825147,39.769023016004319],[-75.522749873268367,39.769143015723735],[-75.523116873689474,39.76934801608396],[-75.523417873988365,39.769535016065369],[-75.523551873882667,39.769411015768867],[-75.523957873763521,39.769042015709147],[-75.524093874205974,39.768920015514475],[-75.524303873369931,39.768732015436342],[-75.5248708738076,39.768225015380715],[-75.524937873754737,39.768173015340977],[-75.525092874463752,39.768057015270053],[-75.525174874479518,39.76802301527178],[-75.525315874046527,39.767965015479604],[-75.525358873704235,39.767948015805096],[-75.525915874096142,39.767736015287198],[-75.526101874767292,39.767666015311633],[-75.526040874667942,39.767557015227581],[-75.526027874249138,39.767532015475382],[-75.525936874012544,39.767313015573286],[-75.525902874575664,39.767211015116224],[-75.52586387421762,39.767093015143615],[-75.525833874080377,39.766906015434053],[-75.525821874384818,39.766829015081065],[-75.52581187433907,39.766448014838204],[-75.52581187433907,39.766340015429734],[-75.525813873988895,39.766152015211382],[-75.525911873898181,39.766173015397122],[-75.52604787434062,39.766218015280373],[-75.526672874504598,39.766280015224808],[-75.527463874349934,39.765932015214887],[-75.527604874815239,39.765869015108365],[-75.527702874724525,39.765827015235487],[-75.528025874764722,39.765676015037101],[-75.528166875230028,39.765611014991471],[-75.528323874690557,39.765537014822385],[-75.528796875416887,39.765318014789017],[-75.528954874702322,39.765245014853264],[-75.529116875084028,39.765169014573097],[-75.529302874856867,39.765084014778147],[-75.529604874980663,39.764949014888231],[-75.529768875012195,39.764877014424371],[-75.529964875729078,39.764786014392165],[-75.530552875184824,39.764517014428378],[-75.530749875726627,39.764427014480511],[-75.530988876101219,39.764315014488538],[-75.531708875801442,39.763982014429018],[-75.531948876000982,39.763872014159183],[-75.531971875567194,39.763861014122575],[-75.532076876047483,39.76378101417982],[-75.532455876164178,39.763497014115771],[-75.532582876385788,39.7634030139873],[-75.532707876059249,39.763308014535156],[-75.533085876351024,39.763024013901322],[-75.53321287657262,39.762930014508186],[-75.533378876253977,39.762799014111501],[-75.533473876688532,39.762725014372933],[-75.533678876727947,39.762589014104769],[-75.533918876029148,39.76247101380676],[-75.534109876723178,39.762379014148117],[-75.534285876450269,39.762300013765156],[-75.534813876529867,39.762065013952061],[-75.534990876980203,39.761987013804536],[-75.535171876730161,39.761907013756172],[-75.535714876878373,39.761667013744052],[-75.535895876628345,39.761587014014481],[-75.536148877246646,39.761472013808834],[-75.536911877502874,39.761127013420669],[-75.537165877047784,39.761013013747124],[-75.537343877323025,39.760931013417007],[-75.537881877448356,39.760688013684351],[-75.538060877548517,39.76060701358287],[-75.538244877671531,39.760524013533562],[-75.538800878238533,39.760278013265726],[-75.538985878186466,39.760196013441487],[-75.539168877586249,39.760112013655096],[-75.53972187778021,39.759860013681134],[-75.539905877903223,39.759777013422017],[-75.540094878049103,39.759693013124554],[-75.540661878486773,39.759445013457089],[-75.540851878457573,39.75936301333163],[-75.541034878755667,39.759283012997173],[-75.54158387875168,39.759047013299195],[-75.54176787887468,39.758968013237165],[-75.541795878463788,39.758953013311306],[-75.541881878677501,39.758908012823547],[-75.541910878989825,39.75889401283461],[-75.541863879134155,39.75868901311464],[-75.54181987875323,39.758491013166299],[-75.541771879072641,39.758066012669659],[-75.541748878608118,39.757858012661806],[-75.541712878623102,39.757726013008259],[-75.541671878615233,39.757524012483685],[-75.541650878698832,39.757323012720597],[-75.541636878455137,39.757188012808079],[-75.541634878805297,39.757112012613007],[-75.541633878980377,39.757071012900049],[-75.541623878934644,39.757000012463514],[-75.541615878538735,39.756945012989313],[-75.541595878447239,39.756891012759709],[-75.541569878507957,39.75682101280826],[-75.54153287869805,39.756612012510274],[-75.541523878477207,39.756560012677916],[-75.541448878134148,39.755983012660643],[-75.54142187836996,39.755774012582101],[-75.54134587820198,39.755093012427018],[-75.541269878033987,39.754567012532746],[-75.541248878117585,39.75439401217151],[-75.541220878528506,39.754248011851999],[-75.541065877819506,39.753376011843926],[-75.54102987783449,39.753148012200896],[-75.540921877879455,39.752466011593036],[-75.540886877719359,39.752239011747172],[-75.54094987836686,39.752209011723743],[-75.541140878162565,39.752123011768333],[-75.541204877736661,39.752095011791795],[-75.541344878377075,39.752032011457679],[-75.541765878326544,39.751844011543263],[-75.541906878791863,39.751782011723492],[-75.542050878731899,39.751717011685436],[-75.542482878552036,39.751522011893918],[-75.542626878492086,39.751457011610533],[-75.542820878660834,39.751374011584495],[-75.543403878992024,39.751128011785369],[-75.543598878985691,39.751046011426872],[-75.543612879229414,39.751013011381403],[-75.543657878536919,39.75091501121593],[-75.543672878605548,39.750883011174011],[-75.543680879001457,39.750863011226571],[-75.543707878765645,39.750807011619166],[-75.543716878986473,39.750788011717347],[-75.543734878529818,39.750720011226143],[-75.543789878781396,39.750520011017414],[-75.543808879047972,39.750453011024817],[-75.543817879268801,39.750419011312928],[-75.543825878766413,39.750392011407882],[-75.543846878682814,39.750319011534863],[-75.543856878728548,39.750286011141142],[-75.543567879023556,39.750254011497653],[-75.543277878595319,39.750223011224563],[-75.542916878920309,39.750184011017161],[-75.542902878676614,39.750183011631336],[-75.542246878550486,39.750168011173578],[-75.541602878119932,39.750007011073272],[-75.540809877726474,39.749642010966809],[-75.540375877358187,39.749114011394703],[-75.539887877461553,39.748519011427895],[-75.539979877523066,39.748354011206054],[-75.540012877135027,39.748356010721345],[-75.540199877631096,39.74836601105973],[-75.540310877959172,39.748379011013895],[-75.540516877823492,39.748403010710433],[-75.540562877854256,39.748408011221706],[-75.540614877732793,39.748415011246209],[-75.540695877923639,39.748451010769017],[-75.540739877406267,39.748470011315383],[-75.540795877482751,39.748386011041383],[-75.540967877910205,39.748136011198604],[-75.541024877811608,39.748053010624808],[-75.541101877804508,39.747940010831165],[-75.541335878156247,39.747602011142845],[-75.541413877974051,39.747490010725095],[-75.541543877670392,39.747300010611312],[-75.541935878205862,39.746733010959275],[-75.542066877727109,39.746545010397803],[-75.542177878055199,39.746375010315546],[-75.542514878339091,39.745867010592946],[-75.542626878492086,39.745698010360769],[-75.54269987828701,39.745590010183321],[-75.542912877824023,39.74527601011274],[-75.54291887857012,39.74526701016444],[-75.542995878563033,39.74516201045018],[-75.543038878220727,39.745101010292728],[-75.543171878290124,39.744919010339935],[-75.543215878671049,39.744859010121147],[-75.542993878014883,39.744771010350348],[-75.542692877715993,39.744651010293389],[-75.542333877690808,39.744499010473824],[-75.542114878306009,39.744407010292903],[-75.541895878022885,39.744318010473982],[-75.541384877661727,39.744111009868448],[-75.541240877721677,39.744047010356184],[-75.541024877811608,39.743953009928752],[-75.540902877612879,39.743900010042687],[-75.540537877739894,39.743741010139956],[-75.54041687736607,39.743688010090821],[-75.540287877494634,39.74364901032839],[-75.540113877417369,39.743597010380618],[-75.539905877004898,39.743517010384267],[-75.539780877331438,39.743469010341904],[-75.53991487722574,39.743281009853916],[-75.540102877546715,39.743022009895761],[-75.540315877083728,39.742717010147651],[-75.540448877153125,39.742529009680226],[-75.540322877654745,39.742479009954536],[-75.539945877187876,39.742329009869124],[-75.539820877514401,39.742280010189504],[-75.539695876942616,39.742229010091243],[-75.539323876498642,39.742078009958249],[-75.539201877198224,39.742026009515691],[-75.539321876848817,39.741850009533039],[-75.539684877071977,39.741324009370381],[-75.539805877445787,39.741149009874682],[-75.539882877438671,39.741022009642613],[-75.539997877066426,39.740834009386191],[-75.540136876983595,39.740656009383486],[-75.540229876870001,39.740540009242942],[-75.540318877456784,39.74041200974257],[-75.540587877070294,39.740030009571875],[-75.540677877481968,39.739903009349931],[-75.540782877063961,39.739747009197536],[-75.541101876906183,39.739279009384745],[-75.541208877036311,39.739124009438406],[-75.541245877744558,39.739068009269559],[-75.541356877174323,39.738902008970392],[-75.541394877707475,39.738847008862166],[-75.54145587780684,39.738757009218389],[-75.541509877335201,39.738678009372762],[-75.541634877008661,39.738484008843045],[-75.541693877458201,39.738393009168384],[-75.541727877793406,39.738338008653955],[-75.54183387720029,39.738173008919631],[-75.541869877185306,39.738119009171989],[-75.541935877307552,39.738027008762501],[-75.542133877674274,39.737754008949423],[-75.542200877621426,39.737663009001693],[-75.54265287753303,39.736913008849484],[-75.542703877586661,39.736847008329313],[-75.542849878074847,39.736701008817207],[-75.542902877778289,39.736624008543025],[-75.543064878159996,39.736394008862597],[-75.543118877688357,39.736318008523156],[-75.543671877882318,39.7365310086265],[-75.544752878155876,39.736986008419684],[-75.545554878770176,39.73731300893315],[-75.546655879135216,39.737752008435677],[-75.547286879146995,39.738017008995925],[-75.547574879027067,39.738128008672348],[-75.547631878928485,39.738127008420904],[-75.547860879257343,39.738255008711377],[-75.547921879356707,39.73827000899967],[-75.548905879545885,39.73867800868198],[-75.548951879576634,39.738690008839235],[-75.549005880003321,39.738716008942561],[-75.549059879531683,39.738612008470476],[-75.549346879586849,39.738221008506301],[-75.549398879465386,39.738165008985256],[-75.549431879975657,39.738055008930125],[-75.549475879458271,39.737981008857076],[-75.549593880357378,39.737805008905553],[-75.549622879771377,39.737775008814019],[-75.549703879962237,39.737695008275836],[-75.549793880373912,39.737540008220961],[-75.549977879598615,39.73722900818251],[-75.550073879858076,39.737081008255508],[-75.550171879767376,39.736931008163978],[-75.550202879729525,39.736890008183472],[-75.550280880445627,39.736790008111868],[-75.550290880491389,39.736767008095569],[-75.550313880057601,39.736722008311837],[-75.550427879860422,39.736497008261743],[-75.550659880562321,39.736042008003658],[-75.5507648801443,39.735819008376041],[-75.550872880099348,39.735591007967443],[-75.550903880061483,39.735523008366158],[-75.550999880320944,39.735320008070275],[-75.551032879932905,39.73525300780399],[-75.551047880001519,39.735257008285679],[-75.551108880100884,39.735294008067449],[-75.551629880507789,39.735513008236275],[-75.552213880663885,39.735759007832584],[-75.553052881088121,39.736113007935046],[-75.553459880793909,39.736186008352512],[-75.55410288139953,39.736303007810022],[-75.555061881474359,39.736477008283153],[-75.556072882326035,39.736556007888453],[-75.556342881764465,39.736578008392009],[-75.556472882359117,39.73651500837569],[-75.557583882769904,39.735984008219511],[-75.558545882319464,39.735178007882318],[-75.559249883024464,39.733885007675482],[-75.559772883081209,39.732929007152556],[-75.559875883013376,39.732436007272732],[-75.560284883267286,39.730490006789935],[-75.560318882704152,39.730326006595327],[-75.560421882636319,39.729834006433904],[-75.560456882796416,39.729671006434586],[-75.560458882446241,39.728517006457935],[-75.560563882926544,39.728557006192396],[-75.560772883163892,39.72864000606819],[-75.560915883279037,39.728902006652213],[-75.560943882868131,39.728532006101986],[-75.560975882655171,39.72810700594178],[-75.561017882487974,39.72787000613048],[-75.561005882792415,39.727747005837337],[-75.560815882821615,39.725636005610561],[-75.560467882667069,39.724782005950523],[-75.560249882208865,39.724245005279101],[-75.560092882748336,39.723847005591665],[-75.560000882686822,39.723861005102357],[-75.559651881809046,39.723915005655876],[-75.559535882356428,39.723932005143261],[-75.559302881829609,39.723969005476178],[-75.558598882022906,39.724077005680797],[-75.556489881179232,39.724402005730433],[-75.555786881197463,39.724511005705942],[-75.555777880976621,39.724392005369104],[-75.55569888133391,39.72306600568588],[-75.555685880915121,39.721584004884711],[-75.555685880915121,39.721298005367039],[-75.555686880740026,39.721046005065126],[-75.55568088089224,39.720524005014518],[-75.555729880397735,39.720219005207888],[-75.555750881212447,39.720093004928003],[-75.555800880542847,39.719916005083725],[-75.555950881228981,39.719481004637231],[-75.556011880430034,39.719341004656457],[-75.556037881267613,39.71928200480648],[-75.556161881116182,39.719072004813732],[-75.55618188120765,39.719034004779644],[-75.556244880956854,39.718922004921012],[-75.556266880698175,39.718885004643944],[-75.556382881049103,39.718677004509772],[-75.556581881240746,39.718322004160548],[-75.556772881036466,39.718083004180869],[-75.556921880999383,39.717898004492433],[-75.557201881381843,39.717570004616725],[-75.557502880782422,39.71720300434766],[-75.557623881156246,39.717066004177823],[-75.557757881050549,39.71692100410008],[-75.557809880929071,39.716866004419749],[-75.558023881189328,39.716645004005692],[-75.55810588120508,39.716554003832613],[-75.558435881816294,39.716190004012688],[-75.559031881667948,39.715512004113094],[-75.559112881858809,39.715417003576498],[-75.559142881996024,39.715383003854548],[-75.559451881792526,39.715042003744792],[-75.559617881473883,39.714857003500683],[-75.560119881614199,39.714303003843433],[-75.560286882018787,39.714119003599109],[-75.560808882250598,39.713558003433782],[-75.561166882450891,39.713174003177201],[-75.562346882458655,39.711850003285186],[-75.562856882096582,39.711279003135296],[-75.562994882188846,39.711143002898915],[-75.563077882927857,39.711050002471111],[-75.563721882460086,39.710345002796707],[-75.563936882545235,39.710110002686342],[-75.563992882621747,39.710048002638473],[-75.564165882874093,39.709858002278445],[-75.564217882752629,39.709802002523503],[-75.56434788244897,39.709875002466561],[-75.564362882517599,39.709884002198571],[-75.564525882724197,39.709982002659984],[-75.564633882679246,39.710045002735036],[-75.564725882740746,39.710115002520574],[-75.564829883396143,39.710223002307053],[-75.564781882817243,39.710053002477196],[-75.564645883273116,39.709560002121933],[-75.564639882527018,39.709544002522414],[-75.564610883113019,39.709451002703283],[-75.564577882602748,39.709380002266521],[-75.564859882635048,39.709058002551572],[-75.565012882795912,39.708896002491521],[-75.565279882759626,39.708615002133705],[-75.565691883386592,39.708149002438439],[-75.566328883246115,39.707453002193418],[-75.566768883462174,39.706973002080225],[-75.567237883990558,39.706458001398417],[-75.567979883432088,39.705646001261762],[-75.568640883581068,39.704912001126793],[-75.569107884459626,39.704396000907693],[-75.569583883762363,39.703862001327352],[-75.569862884319946,39.70355000136054],[-75.570276884596737,39.703099000968614],[-75.571020884586389,39.702267000472069],[-75.571376884238546,39.701870000523584],[-75.571485884916797,39.701742000415386],[-75.571490884939678,39.701729000650332],[-75.571945884326027,39.701184000798861],[-75.57211488438044,39.700982000412495],[-75.572366885173835,39.700707000236306],[-75.572381885242422,39.700688000346986],[-75.572553884771565,39.700534000141964],[-75.5730898852471,39.699927000371865],[-75.573678885426062,39.699260999714959],[-75.574347885072655,39.698503999750841],[-75.57489988544171,39.697878999578272],[-75.574976885434609,39.697796000005503],[-75.575014885069422,39.697754999563472],[-75.575155885534741,39.697589999477024],[-75.575683885614353,39.696977999293175],[-75.575732886018145,39.6969239997686],[-75.575831885752351,39.696812999422825],[-75.576174885884029,39.696462999355525],[-75.576714885659186,39.695876999215251],[-75.576829886185223,39.695697999092197],[-75.577033886399732,39.695466998888378],[-75.577063885638651,39.69542799949582],[-75.577148886027459,39.695334999313495],[-75.577250886134721,39.69521999913777],[-75.578032886657525,39.694335998572299],[-75.578318885989475,39.694064998978661],[-75.57893388610772,39.693383998754811],[-75.579088886816734,39.693461998445123],[-75.579212886665289,39.693522998673245],[-75.579775886904983,39.693798998646351],[-75.579887887057993,39.693860998779037],[-75.580049886541389,39.69395099896176],[-75.580103886968047,39.693980998766172],[-75.58031788722829,39.694113999055403],[-75.580395887046109,39.694138998488683],[-75.580499886803167,39.694202998710807],[-75.580572886598105,39.694247998593895],[-75.580772887512964,39.694313999106619],[-75.580883886942715,39.694355999023031],[-75.581075887461665,39.694406998590942],[-75.581185887066525,39.694436998888392],[-75.581275887478228,39.694448999141997],[-75.581648887747122,39.694517998658704],[-75.58233688766029,39.694644998841071],[-75.582769888203643,39.694725999058527],[-75.583143888297457,39.694796998676019],[-75.583176887909417,39.69466399901156],[-75.583198887650724,39.694617998517067],[-75.583324888047429,39.694371998688226],[-75.583418887758754,39.694250998492898],[-75.58350088777452,39.694144998987262],[-75.583536887759536,39.694099998345798],[-75.583630888369171,39.69401099855758],[-75.583729888103377,39.693924998567738],[-75.583795888225609,39.693883998591119],[-75.584046888295774,39.693728998897903],[-75.584355888092276,39.693608998472691],[-75.584559888306771,39.693562998657562],[-75.584515887925832,39.693423998819675],[-75.584383888579666,39.693009998270831],[-75.584340888023661,39.69287199822729],[-75.584671888459752,39.692798998268081],[-75.584795888308321,39.692772998131389],[-75.585083888188421,39.692742998493188],[-75.585189888493616,39.692740998055989],[-75.585418888822474,39.692753998131636],[-75.585602888945488,39.692804998191896],[-75.585667888344503,39.692845998118095],[-75.585820888505367,39.6929419981536],[-75.585949888376817,39.693035998318265],[-75.586098888339734,39.692948998280613],[-75.586207889017984,39.692886998020001],[-75.586320888995886,39.692804998191896],[-75.586504889118899,39.692680998047585],[-75.586533888532927,39.692664997990448],[-75.586685888868871,39.692581998368908],[-75.586719889204062,39.692535998560707],[-75.586817889113348,39.692476997905295],[-75.586857889296326,39.692453998315614],[-75.587023888977683,39.692310998110386],[-75.587204888727655,39.692135997944376],[-75.58732888947452,39.692016998435214],[-75.587569889498937,39.692194998200044],[-75.58777188916531,39.692343997918208],[-75.587999889669248,39.69248899849957],[-75.588328889557218,39.692674998112992],[-75.588589889673131,39.692823998177552],[-75.588738889636062,39.692660998493977],[-75.589189889722761,39.692171997825156],[-75.589339889510569,39.692009998213742],[-75.589828890130434,39.691474997948212],[-75.589895890077585,39.691402998132141],[-75.591256889835336,39.68985499740311],[-75.591266889881069,39.689841997472854],[-75.591585890621602,39.689461997632044],[-75.591732890036397,39.689286997156607],[-75.59181889025011,39.68915899721523],[-75.5918318906689,39.689140997182896],[-75.592121890198797,39.688811997185084],[-75.592224890130964,39.688697997479878],[-75.592256890816344,39.688662997447757],[-75.592355890550536,39.688559997111938],[-75.592388890162511,39.688525997289474],[-75.592507890886495,39.688396997038268],[-75.592730890469269,39.688143997239024],[-75.593751890468354,39.686994996635285],[-75.594092890950222,39.68661199679353],[-75.594165890745145,39.686549997063388],[-75.594181890638694,39.686536996510824],[-75.594273890700194,39.686477996950067],[-75.594339890822425,39.686447996650273],[-75.594419891188366,39.686418996647646],[-75.594510890526664,39.686386996392208],[-75.594554890907588,39.686371996569825],[-75.594642890771127,39.686326996391827],[-75.594203890379987,39.685657996277442],[-75.594068890660765,39.685439996421003],[-75.593870890294056,39.685180996261344],[-75.593681891046486,39.684912996290628],[-75.593334890716832,39.684454996182183],[-75.593188890228674,39.684258996587253],[-75.593001890630916,39.684004996489094],[-75.592807890462154,39.683706995993909],[-75.592718889875385,39.683587996473882],[-75.592545890521336,39.68333799601826],[-75.592470890178262,39.683233996369658],[-75.592024890114445,39.682613995958754],[-75.591755889602609,39.68224699572319],[-75.591642889624708,39.682071995626735],[-75.591601889616811,39.682021995616502],[-75.591554889761156,39.681971996261375],[-75.591424890064815,39.681781996031269],[-75.591411889646025,39.681752996143054],[-75.591391889554529,39.681714995603514],[-75.591305889340802,39.681605995759263],[-75.591252889637346,39.681537996162533],[-75.591146889332151,39.681388995937688],[-75.591055889993854,39.681274995729545],[-75.590970889605046,39.681166995577136],[-75.590892889787241,39.681059995643601],[-75.590658889435531,39.680738995539699],[-75.590581889442618,39.680632996028464],[-75.590570889571978,39.680601995560181],[-75.590555889503364,39.680553995967315],[-75.590526889191025,39.680517995559377],[-75.590506889099558,39.680493995737926],[-75.590929889597163,39.680029995706867],[-75.591466889897603,39.679442995319434],[-75.592212889537095,39.678647994964983],[-75.592643889532297,39.678190995216923],[-75.594473890716728,39.676242994837082],[-75.594829890368885,39.67585899435754],[-75.595220890181125,39.675438994219029],[-75.595445890312035,39.675196994319563],[-75.595830890276503,39.674782994411338],[-75.596270890492548,39.674282994530991],[-75.597295890689594,39.673146993845798],[-75.597371890857588,39.673069993834837],[-75.598879891826712,39.671454993500795],[-75.600364891433017,39.669864993366183],[-75.601243892040216,39.668903992655977],[-75.601328892429009,39.668810992703193],[-75.601555892209745,39.668568993094297],[-75.601879892074862,39.66822199263035],[-75.602877892507735,39.667160992512756],[-75.603230892685147,39.666778992524137],[-75.603510892169311,39.666475992155284],[-75.603602892230811,39.666376992246619],[-75.604230892767845,39.665676992246468],[-75.604399892822258,39.665505992035058],[-75.604510893150334,39.665384992426411],[-75.604091892850676,39.665381991964807],[-75.602446892512503,39.665273992547618],[-75.60196289191552,39.665249992270077],[-75.600516891768976,39.665175992226132],[-75.600199891576565,39.665159992019326],[-75.599793891695711,39.66513799224753],[-75.599092891363739,39.66510199210294],[-75.598792890889783,39.665091992136318],[-75.59868789130779,39.665090992208697],[-75.598576890979714,39.665084992642811],[-75.59840489055226,39.665077992457135],[-75.598174890398482,39.665115992468735],[-75.598146890809403,39.665113992614224],[-75.59788689051841,39.665075992601523],[-75.597857891104397,39.665073992054381],[-75.597086890452246,39.665039992424639],[-75.596900890679407,39.665054992039622],[-75.596853890823738,39.66505899244352],[-75.596582890662077,39.665046992614222],[-75.596001889980712,39.665020992400571],[-75.595526889604557,39.665000992442373],[-75.594261889207985,39.664943992322286],[-75.59424288983972,39.664942992392533],[-75.593681889249865,39.664918992691497],[-75.593091889245983,39.664892992429742],[-75.592870889313033,39.664862992434713],[-75.592858888719164,39.664860992572883],[-75.592651889029923,39.6648309925639],[-75.592479888602469,39.664822992421037],[-75.590327888101086,39.66472899257441],[-75.588862887687966,39.664670992296251],[-75.587657887565854,39.664623992631299],[-75.586781887331696,39.66458399247928],[-75.585750887286878,39.664536992755153],[-75.585014886794795,39.664498992425138],[-75.584156886103997,39.664455992390472],[-75.58328188569476,39.664413992957968],[-75.581673885166524,39.664341992587119],[-75.581574885432318,39.664322993062662],[-75.581307885468632,39.664314992860945],[-75.581092885383484,39.664308992536206],[-75.580868885077479,39.664293992759291],[-75.580841885313305,39.66429199288099],[-75.580247885111461,39.664260992685399],[-75.579631885168325,39.664239992567332],[-75.579555885000332,39.664232992987536],[-75.579449884695123,39.664228992535854],[-75.579167884662823,39.664219993074603],[-75.578990885110798,39.664177992807126],[-75.578961884798488,39.664177992807126],[-75.578874884759855,39.664181992570263],[-75.578845884447531,39.664182993202523],[-75.578340884832471,39.664159993178636],[-75.578050884404234,39.664150993016868],[-75.57785188421262,39.664138993029823],[-75.577162884474546,39.664096992713105],[-75.576666884181989,39.664067993006419],[-75.576384884149661,39.6640549930624],[-75.575948884131577,39.664027993224074],[-75.575884883659171,39.664024992703546],[-75.575487883999145,39.664006993035208],[-75.575429883374497,39.664011992751448],[-75.574873883705791,39.663978993234416],[-75.574105883426682,39.663933992987502],[-75.573881883120706,39.663920993018287],[-75.573735882632533,39.663912992770058],[-75.57358288336998,39.66390399326761],[-75.573493882783197,39.663897992907181],[-75.572713882808515,39.66385299329901],[-75.572574882891331,39.663843993097252],[-75.572332883042023,39.663828993219447],[-75.571946882354311,39.663805993077673],[-75.571670882169784,39.663780993035211],[-75.57164388240561,39.663777993195495],[-75.571275882159568,39.663738993192439],[-75.570819882050017,39.663668992706214],[-75.570740882407279,39.663652992841975],[-75.570539881667514,39.663612992819417],[-75.57044488213127,39.6635859928084],[-75.57028788177243,39.663529992854357],[-75.569179881734698,39.663191992958311],[-75.569165881491003,39.663186993182741],[-75.5691238816582,39.66317199316228],[-75.569109881414505,39.663167993340664],[-75.569103881566704,39.663180992760012],[-75.568787881199214,39.663522993202633],[-75.568436881569923,39.663907993046614],[-75.567821881451707,39.664585993040667],[-75.56643188048335,39.666142993784412],[-75.565875880814644,39.666765993781617],[-75.565820880563066,39.666827993985692],[-75.565765880311474,39.666889994134138],[-75.565695880889592,39.66686599372639],[-75.565096880664882,39.666628993746848],[-75.563979880406308,39.666187993975768],[-75.563069879836974,39.665903993567795],[-75.562926879721843,39.665859993799494],[-75.56241287988594,39.665618993455567],[-75.562320879824426,39.665693993635458],[-75.561731879645464,39.666166993751823],[-75.561384879315838,39.666441993906965],[-75.561042879009079,39.666766993685002],[-75.561003879549332,39.666828993888174],[-75.560853878863185,39.666831994286945],[-75.560761878801671,39.666797994139273],[-75.560678878961014,39.666763993974904],[-75.560624879432638,39.666721993870723],[-75.560578879401888,39.666667994193212],[-75.560540878868736,39.666602994128489],[-75.560540878868736,39.666538993909242],[-75.560632878930249,39.66517299382997],[-75.560632878930249,39.665126993742057],[-75.560632878930249,39.665082993478933],[-75.560638878778036,39.665029993832079],[-75.56004787894922,39.664868993402862],[-75.559915878704757,39.664833993740963],[-75.559037878820803,39.664535993511031],[-75.558483877903612,39.664267993645375],[-75.558329877917814,39.664239993950346],[-75.558200878046392,39.664217993885643],[-75.558009878250687,39.664137993779953],[-75.557976877740387,39.664113993799369],[-75.557912878166306,39.664057993581679],[-75.556443877555225,39.662823993294964],[-75.556352877318631,39.662745993573104],[-75.559738878254436,39.658810992796994],[-75.560893879046162,39.65746899232262],[-75.561128878324482,39.657267992021872],[-75.558758877364909,39.654244991387515],[-75.557244877446294,39.652313991374804],[-75.553353875997118,39.647361990202256],[-75.550309874469733,39.643474989811168],[-75.547181873276784,39.639509989172431],[-75.547170873406131,39.639547989405713],[-75.547141873093821,39.639605989320998],[-75.547078873344631,39.639693989051821],[-75.546911872940058,39.639852989429315],[-75.546706872900629,39.640047989510698],[-75.546593872922728,39.640154989318212],[-75.545896872788745,39.640813989428828],[-75.545049872866898,39.641576989743974],[-75.545017873079843,39.641605989894508],[-75.544924872295127,39.641689989474791],[-75.544685872818846,39.641917989600017],[-75.544526872810152,39.642080989365226],[-75.544419872680052,39.642199989825457],[-75.544326872793633,39.642319989646175],[-75.544200872396942,39.642485989919642],[-75.543695871883543,39.643057990018292],[-75.543078872115501,39.643819990242179],[-75.542510871852926,39.644464990310496],[-75.542371871935757,39.644622990562731],[-75.542332871577685,39.644666990017079],[-75.542293872117938,39.644728989986696],[-75.542279871874229,39.644774990508417],[-75.542261872330883,39.64493999020322],[-75.542257872132936,39.644973990036952],[-75.542228871820626,39.645058990585625],[-75.542214871576917,39.645083990482959],[-75.542161871873475,39.645178990287128],[-75.542032872002025,39.645359990353796],[-75.541979872298583,39.645432990651678],[-75.541924872047005,39.645456990202142],[-75.541865871597466,39.645468990666004],[-75.54176687186326,39.64546599072316],[-75.541664871755984,39.645462990780175],[-75.541201871973726,39.64544999079525],[-75.541124871980841,39.64544999079525],[-75.541071871379074,39.645452990738811],[-75.540944871157478,39.645480990436013],[-75.540460871458791,39.645579990534429],[-75.539755870928857,39.645723990864795],[-75.539424871391077,39.645791990436152],[-75.539376870812191,39.645801990428545],[-75.539112871221548,39.645861990352337],[-75.538973871304378,39.645904990888241],[-75.53872787125708,39.645987990576188],[-75.537277870912561,39.64646899087316],[-75.536889870575052,39.64658799069926],[-75.536716870322707,39.646630990783684],[-75.536634870306941,39.646642991043741],[-75.535830870042815,39.646746991135409],[-75.535238869490783,39.646797991276152],[-75.535084869504999,39.646821991044511],[-75.534466869912023,39.647119990875794],[-75.534306869180142,39.647197990939844],[-75.533882869755928,39.647381991114841],[-75.533588869129744,39.64752299129718],[-75.533525869380554,39.647564991310631],[-75.533348868930233,39.647727990907121],[-75.533021869590414,39.648044991529936],[-75.532359868718174,39.648614991655535],[-75.532019868959551,39.64890799125056],[-75.531909869354706,39.649001991865575],[-75.531823869140979,39.649076991403724],[-75.531345868391767,39.649467991717422],[-75.531301868909154,39.64954199198079],[-75.531272868596844,39.649610991407265],[-75.531215868695426,39.649895991827222],[-75.531190868581064,39.650012991688556],[-75.531202869174962,39.650024992053311],[-75.530965868450181,39.650280991499734],[-75.530688868440748,39.650536992073135],[-75.53034586830907,39.650842992179449],[-75.530119868353268,39.651043991797046],[-75.529823868077258,39.65130799194511],[-75.529723868518147,39.651396992126763],[-75.529302868568649,39.65180399230546],[-75.529177867996879,39.651927992531149],[-75.529127868666478,39.651962992504359],[-75.529098868354154,39.651977992191071],[-75.529057868346285,39.651992992566178],[-75.52902686838415,39.652009992480103],[-75.528991868224026,39.652034991939118],[-75.528938868520584,39.652071992090193],[-75.528878868246125,39.652126992222065],[-75.528856868504832,39.65215699221266],[-75.528831868390469,39.652202991942403],[-75.528813867948799,39.652252992095079],[-75.528798867880184,39.652321992274082],[-75.528795868405453,39.652350992068143],[-75.52880086842832,39.652416992508066],[-75.528822868169627,39.652467992616245],[-75.528828868017428,39.652492992601289],[-75.528822868169627,39.652524992651927],[-75.528803867903065,39.652547992398162],[-75.528713868389687,39.652651992598791],[-75.52859786803873,39.6527819926295],[-75.528519868220926,39.652871992401181],[-75.528479868037948,39.652903992276379],[-75.528438868030079,39.652921992761634],[-75.528103868294323,39.653020992580174],[-75.528068868134227,39.653027992603867],[-75.527893868232056,39.653039992445272],[-75.527865867744623,39.653049992772608],[-75.527830867584541,39.653071992242694],[-75.527608867826686,39.653289992586707],[-75.527498868221826,39.653409992527081],[-75.527096867640623,39.653822992464526],[-75.526979867464732,39.653998992977506],[-75.526849867768391,39.654200992495305],[-75.526768867577545,39.654319992845672],[-75.526700867805474,39.654410992771943],[-75.526650867576777,39.654497992946659],[-75.526620867439533,39.654562992640088],[-75.526568867561011,39.65467299304597],[-75.526366867894637,39.655143993068599],[-75.526217867931734,39.655504993049924],[-75.526203867688025,39.655541992726896],[-75.526168867527929,39.655628992861367],[-75.526168867527929,39.655671992855574],[-75.526184867421449,39.655705992944618],[-75.526556867865438,39.656041993373123],[-75.526574867408783,39.656056992866368],[-75.526763867554678,39.655979993174064],[-75.526874867882754,39.656063993274238],[-75.52729186763429,39.65608599316834],[-75.52673786761541,39.656827993417792],[-75.526304867970367,39.656585993337451],[-75.526239867673041,39.656549993578921],[-75.526232868000335,39.656558993347396],[-75.526211867185623,39.656552993040783],[-75.52609086771011,39.656507993491076],[-75.526000867298436,39.656474993157168],[-75.52598086720694,39.656473993104925],[-75.525937867549246,39.656478993366157],[-75.525829867594197,39.656513993109982],[-75.525715867791405,39.656551992989655],[-75.525630867402583,39.656579993033191],[-75.525616867158888,39.656584993286799],[-75.525592867767742,39.65659399305072],[-75.525574867326085,39.656606993015039],[-75.52508286723149,39.657030993703408],[-75.524846867229954,39.657264993282631],[-75.524735866901864,39.657381993120943],[-75.524651867236273,39.657487993731522],[-75.524607866855348,39.657541993666889],[-75.524593867509964,39.65755899359938],[-75.52457986726624,39.657567993236526],[-75.524563867372734,39.657567993236526],[-75.524514866968929,39.657541993666889],[-75.524481867356954,39.657545993814118],[-75.524465867463448,39.657556993526178],[-75.523925866789952,39.658208993577567],[-75.523577866635421,39.65864399365968],[-75.52352686658179,39.658711993663523],[-75.523212866762435,39.659174993721592],[-75.52289286709528,39.659639994148748],[-75.522828866622874,39.659733994002231],[-75.522733867086629,39.659867993866555],[-75.522646867047982,39.659984994139421],[-75.522363866292451,39.660332994471986],[-75.522178866344532,39.660568993922993],[-75.522156866603225,39.660600994384261],[-75.521974866130037,39.660827994400172],[-75.521839866410815,39.660995994471058],[-75.521810866098505,39.661023994097391],[-75.52177886631145,39.661041994542778],[-75.521550866705823,39.661143994442149],[-75.52150786614979,39.661171994008512],[-75.521470866339868,39.661206994142056],[-75.521177866436929,39.661454994521399],[-75.52105286586513,39.661559994438946],[-75.520948866108057,39.661647994582808],[-75.520935866587578,39.661658994333578],[-75.520613866372301,39.661910994368519],[-75.520508865891998,39.662041994245989],[-75.520479866477999,39.662073994716735],[-75.520460866211423,39.662092994859599],[-75.520400865936978,39.662134994319679],[-75.520193866247737,39.66226199458999],[-75.520107866033996,39.662304994606856],[-75.520034866239072,39.662341994792939],[-75.519911866215423,39.662415994414111],[-75.51947886567207,39.662677994772231],[-75.519417865572692,39.66271599472055],[-75.519104865578271,39.662915994431806],[-75.519008865318781,39.662977994632811],[-75.518840865987599,39.663086994828923],[-75.518712865941097,39.663181994789852],[-75.518626865727356,39.663246994615101],[-75.518475865216317,39.663365994604824],[-75.518370865634324,39.663449994718249],[-75.517973865075987,39.663764995271485],[-75.517746865295265,39.663976994730071],[-75.517413865209321,39.664266995088894],[-75.517283865512994,39.664390995085505],[-75.517245864979827,39.664441995348511],[-75.517229865086307,39.664462995405238],[-75.517200865672308,39.66451199505169],[-75.517171865359998,39.664568994836593],[-75.517144865595824,39.664628995068966],[-75.517119865481462,39.664680995089874],[-75.517075865100537,39.664732995071716],[-75.516747865037473,39.665051995021258],[-75.516630864861611,39.665161995330074],[-75.51660886512029,39.665181995241674],[-75.516356865225205,39.665417995421009],[-75.516009864895594,39.665765995363557],[-75.515749864604572,39.66606199530235],[-75.515534864519424,39.666333995455105],[-75.515408865021044,39.666509995918922],[-75.515319864434261,39.666634995944598],[-75.515225864722936,39.666765995856139],[-75.515119864417741,39.666917995521331],[-75.515023865056591,39.667055995573769],[-75.514997865117309,39.667098996064951],[-75.514961865132307,39.667160995970221],[-75.514902864682753,39.667259995447083],[-75.514870864895698,39.667313996044925],[-75.514647864414641,39.667653995612497],[-75.514448864222999,39.6679569956558],[-75.514338864618139,39.668135995784993],[-75.514248864206465,39.66828299579538],[-75.514226864465144,39.668328995856697],[-75.514205864548757,39.66837899609903],[-75.514197864152834,39.668402995981268],[-75.514197864152834,39.668416996369693],[-75.514202864175715,39.668453996049017],[-75.514223864990427,39.668545995913277],[-75.514236864510892,39.668602995827889],[-75.514238864160731,39.668648996367601],[-75.514227864290064,39.668731996407168],[-75.514206864373676,39.668814996346974],[-75.514180864434394,39.668895996442075],[-75.514158864693087,39.668930996120849],[-75.514125864182802,39.668966996344864],[-75.514068864281413,39.668999996245617],[-75.514044864890266,39.669006996033964],[-75.514019864775918,39.669013996513073],[-75.513990864463608,39.669031996260081],[-75.513956864128403,39.669062996389584],[-75.513830864630023,39.669227996197989],[-75.513805864515675,39.669279996215195],[-75.513796864294832,39.669332996059502],[-75.513789864622154,39.669393996169177],[-75.513790864447046,39.669495996186882],[-75.513800864492779,39.669599996470197],[-75.513803864865849,39.669625996343704],[-75.513755864286949,39.66967899661401],[-75.513522864658455,39.669937996136916],[-75.513464864033821,39.670101996074919],[-75.513377863995188,39.670330996391073],[-75.513354864428962,39.670399996500578],[-75.513309864223118,39.670561996336509],[-75.513298864352478,39.670588996387522],[-75.513237864253099,39.670612996193469],[-75.513168864656137,39.670644996843713],[-75.513101864708986,39.670673996555863],[-75.51301986469322,39.670720996254289],[-75.512993863855627,39.670739996785329],[-75.512950864197933,39.670772996530694],[-75.512879864052792,39.670836996285196],[-75.512800864410096,39.670908996802503],[-75.512770864272852,39.670940996624232],[-75.51271886439433,39.670994996419331],[-75.512630864530777,39.671089996571126],[-75.512534864271316,39.671199996947585],[-75.51233886445273,39.671502996651334],[-75.512304864117539,39.671560996726058],[-75.512191864139623,39.671774996818947],[-75.512143864459063,39.671890997154421],[-75.512095863880177,39.672008996950076],[-75.512045863651466,39.67215199702418],[-75.512023863910144,39.672200996749417],[-75.512021864260333,39.672218997048951],[-75.511968863658566,39.672367997005196],[-75.511845863634917,39.672783997191196],[-75.511832864114439,39.672828997205805],[-75.511479863937026,39.673868997441851],[-75.511279863920478,39.674493997188378],[-75.511127863584505,39.674976997132319],[-75.51107986390393,39.67511499768122],[-75.510994863515137,39.675358997425981],[-75.510899863978892,39.675700997742723],[-75.510876863514355,39.675783997606722],[-75.510861864344051,39.675835997529028],[-75.510804863544323,39.676077997955332],[-75.51076386353644,39.676248997582476],[-75.510726863726504,39.676429997878962],[-75.51062486361927,39.676923998199491],[-75.510603863702869,39.677025998161518],[-75.51051686366425,39.67735399787243],[-75.510477864204489,39.677498998131348],[-75.510470863633472,39.677525998236518],[-75.51043486364847,39.677685997772628],[-75.510375864097242,39.677942998213496],[-75.510268863967127,39.678524998165294],[-75.510224863586203,39.678859998535458],[-75.510195864172189,39.679085998298575],[-75.510169864232921,39.679309998569998],[-75.510158864362253,39.679374998432529],[-75.510141863745503,39.679415998729141],[-75.510114863981329,39.679450998608985],[-75.510060863554656,39.679522998444313],[-75.510046864209272,39.679549998449623],[-75.510041864186405,39.679576998444432],[-75.510047864034178,39.679689998282342],[-75.510057864079926,39.67973299851473],[-75.51007386397346,39.679750998234276],[-75.510105863760486,39.679781998393224],[-75.510349864157973,39.679949998700259],[-75.510400864211604,39.679998998424736],[-75.510408863709216,39.680023998821035],[-75.510408863709216,39.68004099875354],[-75.510411864082258,39.680224998608864],[-75.510410864257338,39.680287998886328],[-75.510416864105125,39.680298998435035],[-75.510431864173739,39.68030499875379],[-75.510447864067245,39.680307998567287],[-75.510513864189505,39.68031799840562],[-75.510521863687117,39.680328998640917],[-75.510521863687117,39.680340998581386],[-75.510509863991544,39.680388998322293],[-75.510347864508148,39.680950998913666],[-75.510332864439533,39.681006998574425],[-75.510305863777049,39.681112998894342],[-75.510296864454517,39.681158998708625],[-75.510197863822029,39.681497998889839],[-75.510154864164306,39.68164599850018],[-75.510174864255802,39.681681999011396],[-75.51008986386698,39.682009998733548],[-75.510068863950579,39.682074998820205],[-75.510041864186405,39.682117998950304],[-75.510031864140672,39.68213999884572],[-75.509993863607505,39.682272999132671],[-75.509825864276337,39.682903998973593],[-75.509787863743185,39.683018998926073],[-75.509720863796048,39.683293999057753],[-75.509474863748736,39.684139999401104],[-75.509328864158874,39.684640999466524],[-75.509278863930163,39.684800999802029],[-75.509256864188856,39.684843999617271],[-75.509253863815815,39.684871999257496],[-75.509181863845782,39.685273999753583],[-75.509087864134457,39.685814999521426],[-75.509087864134457,39.685938999554729],[-75.509090863609174,39.686215999744647],[-75.509369864166757,39.686431999987668],[-75.509423863695119,39.686472999551015],[-75.509492864190406,39.686526999646915],[-75.509541864594198,39.686573999619206],[-75.509552864464851,39.686596999785216],[-75.509558864312638,39.686625999713094],[-75.509556863764502,39.686695999751024],[-75.509560863962463,39.686788999820038],[-75.509566863810235,39.686833000084064],[-75.509583864426986,39.68687200018465],[-75.509600864145426,39.686922999751232],[-75.509609864366269,39.686979000099406],[-75.509610864191174,39.687041000135629],[-75.50961486438915,39.687251999763738],[-75.509598864495615,39.687297999636328],[-75.509586863901745,39.68732699996108],[-75.509559864137557,39.687356000273645],[-75.509517864304769,39.687402000076943],[-75.509507864259021,39.687421000167134],[-75.509499863863084,39.687510000156024],[-75.509482864144658,39.688234000036246],[-75.509471864274005,39.688665000076938],[-75.509447863984562,39.688878000130074],[-75.509365863968796,39.689615000157076],[-75.509333864181741,39.689899000552103],[-75.509288863975911,39.690299000304982],[-75.509199864287439,39.69182600072854],[-75.509197864637628,39.691852001221918],[-75.509164864127342,39.692088000839092],[-75.509238864645511,39.69231800106629],[-75.509287864150977,39.692499000721369],[-75.509316864463315,39.692599000739683],[-75.509304864767728,39.692666000975066],[-75.509298864021645,39.692699001304376],[-75.509331864531916,39.69278800140173],[-75.509371864714879,39.692896001350235],[-75.509335864729891,39.69303300113139],[-75.509378864387585,39.693138001440524],[-75.509520864677796,39.693292000867807],[-75.509790865014565,39.693511001023566],[-75.509870864482181,39.693606001310698],[-75.509925864733759,39.693671001540935],[-75.509932864406451,39.693819001326396],[-75.509875864505048,39.693923001620924],[-75.509775864945937,39.693989001061986],[-75.509413864547682,39.694181001276448],[-75.509292864173858,39.694203001475749],[-75.509249864516164,39.69423600107028],[-75.509192864614747,39.694319001467932],[-75.509126864492515,39.694487001659233],[-75.509073864789059,39.694550001366387],[-75.509006864841908,39.694618001281931],[-75.508957864438116,39.694670001538135],[-75.50892086462818,39.694692001581579],[-75.508897864163657,39.694741001213224],[-75.508787864558798,39.694807001254567],[-75.508675864405802,39.694855001307808],[-75.508630864199958,39.694875001608175],[-75.508579864146341,39.694991001853495],[-75.50854086468658,39.695080001760594],[-75.508489864632963,39.695182001862499],[-75.508411863916834,39.695270001341399],[-75.508268864700028,39.695465001986172],[-75.508256864106144,39.695478001548771],[-75.508032863800167,39.695719001397386],[-75.507943864111695,39.695815001584513],[-75.507252863825485,39.69646900172566],[-75.507025864044749,39.696736002297406],[-75.506857863815284,39.696983002152614],[-75.506681864088165,39.697173002024591],[-75.506537864148129,39.697271001877752],[-75.504915863376183,39.697954002054267],[-75.504615862902213,39.698082002276472],[-75.504615862902213,39.698235002284612],[-75.504624863123041,39.698255002296762],[-75.504445863022895,39.698321002433936],[-75.504364862832048,39.698356002407756],[-75.504105863264257,39.698279002165442],[-75.50400486298193,39.698302002578913],[-75.503807863338437,39.698348002691795],[-75.503527862955963,39.698397002492769],[-75.503403863107394,39.698436002281277],[-75.503361863274606,39.69844800253076],[-75.503131863120828,39.69851900246676],[-75.502645862874019,39.698669002490469],[-75.501128862582377,39.699416002882579],[-75.500508862441251,39.699412002394965],[-75.500057862354552,39.699409002720266],[-75.500011862323788,39.699351002533049],[-75.499978861813531,39.699312002570402],[-75.499967861942864,39.699300002471155],[-75.499951862049343,39.699294002420721],[-75.499918861539072,39.699302002718206],[-75.499870861858511,39.699314002817111],[-75.499510862008378,39.699400003004278],[-75.499288861352213,39.699457003029067],[-75.499190861442926,39.699491002997156],[-75.499060861746585,39.699548002946777],[-75.498923861479241,39.699604002730197],[-75.498599861614125,39.699736003125992],[-75.498020861480896,39.700007003262535],[-75.497515860967539,39.70025800290901],[-75.497455861591391,39.700250002722292],[-75.497427861103986,39.700298003137327],[-75.497314861126085,39.700352002786737],[-75.497297861407631,39.700362003177908],[-75.497225861437613,39.700404002869945],[-75.497126860805096,39.700469002918879],[-75.496769861328033,39.700752002790566],[-75.496710860878494,39.70079100332179],[-75.496658860999943,39.700821002917905],[-75.496625861387997,39.700835002955365],[-75.496589860504656,39.700843003074212],[-75.496537860626134,39.700849002989976],[-75.496510860861946,39.700855002905179],[-75.496488861120639,39.700866003324364],[-75.496456861333598,39.700891003076748],[-75.496428860846194,39.700908003400841],[-75.496384860465255,39.700927003229538],[-75.496343860457372,39.700944002853596],[-75.496313861218454,39.700964003462978],[-75.496294860951892,39.700986002882544],[-75.496246861271302,39.701050002976302],[-75.496108861179053,39.701184003563462],[-75.495752860628571,39.701678003036861],[-75.495727860514222,39.701709003027183],[-75.495710860795782,39.701722003487212],[-75.495678861008727,39.701738003518336],[-75.495658860917246,39.701752003369762],[-75.49563886082575,39.701770003569507],[-75.49562286093223,39.701787003677019],[-75.495532860520555,39.702013003732944],[-75.495525860847849,39.702043003488996],[-75.495507860406207,39.702243003372473],[-75.495495860710633,39.70230400344272],[-75.495482860291844,39.702339003470051],[-75.495465860573404,39.702375003558579],[-75.495445860481908,39.7024100035499],[-75.49542186109079,39.702443003367456],[-75.49540186099928,39.702474003705277],[-75.495390860230344,39.702506003415152],[-75.495308860214564,39.702760003868711],[-75.495305860739833,39.702793003518906],[-75.49529286032103,39.702830003443019],[-75.495289860846299,39.702849003433698],[-75.495286860473257,39.702903003851503],[-75.495286860473257,39.702951003803477],[-75.495282860275296,39.7029910038531],[-75.495272860229548,39.703025003462393],[-75.495219860526106,39.703169003654658],[-75.495210860305278,39.703194003955012],[-75.495204860457477,39.703228003464282],[-75.495197860784813,39.703271003551436],[-75.495182860716184,39.703308003910394],[-75.495158860426727,39.703352004012523],[-75.495137860510326,39.703395004022461],[-75.495127860464592,39.703427003996339],[-75.495116860593939,39.703472003394594],[-75.495089860829765,39.703619003528168],[-75.495073860936245,39.703674004094715],[-75.495053860844749,39.70373000398569],[-75.494916860577405,39.70414200371156],[-75.494906860531657,39.70418500392028],[-75.494900860683885,39.70422400389355],[-75.49490186050879,39.704258003586453],[-75.494904860881832,39.704280004029258],[-75.494913860204349,39.704300003671825],[-75.494914860927594,39.704314003694556],[-75.494915860752485,39.704334004018364],[-75.494911860554538,39.704357003796112],[-75.494844860607373,39.704468003757597],[-75.494824860515891,39.704499003876826],[-75.494799860401528,39.704532004077599],[-75.494476860361345,39.704961003869457],[-75.494327860398428,39.705178004243415],[-75.494300860634254,39.705219004422112],[-75.494284860740734,39.705256004427611],[-75.494225860291181,39.705413003875421],[-75.494197860702087,39.705475003941956],[-75.494158860344044,39.705544004184546],[-75.4941288602068,39.705591004340356],[-75.493942860433975,39.705867004432776],[-75.4938468601745,39.706032004080967],[-75.493832860829102,39.706062004163066],[-75.493814860387445,39.706103004507639],[-75.493810860189498,39.706115004115041],[-75.493798860493925,39.706154004379634],[-75.493786860798352,39.706208004284392],[-75.493776860752618,39.706263004169514],[-75.493770860006521,39.706332004315193],[-75.493771860729737,39.706386004080592],[-75.493776860752618,39.706422004131092],[-75.493784860250216,39.706451004714829],[-75.493797860669005,39.706484004673143],[-75.493853860745503,39.706579004381311],[-75.493918860144518,39.706691004240234],[-75.493934860038053,39.706726004115637],[-75.49393986006092,39.706753004540566],[-75.49393986006092,39.70676800477208],[-75.493937860411094,39.706795004489415],[-75.493931860563308,39.706816004108745],[-75.493914860844882,39.706850004597733],[-75.49389386003017,39.706887004419727],[-75.493448860689554,39.707478004397075],[-75.493418860552339,39.707516004577883],[-75.493391860788137,39.707544004697738],[-75.493365859950572,39.707566004783907],[-75.493332860338612,39.707585004852668],[-75.493304860749518,39.707596004890121],[-75.493251860147751,39.707607004925812],[-75.493232859881161,39.707607004925812],[-75.493189860223467,39.707605004919429],[-75.493150859865395,39.707598004896759],[-75.492929859932474,39.707722004502727],[-75.492904859818111,39.707735004520963],[-75.492875860404098,39.707761004550072],[-75.492847859916708,39.70778200456644],[-75.492823860525576,39.707810004578342],[-75.49277585994669,39.707900004539596],[-75.49255486001374,39.708314004922393],[-75.492512860180938,39.708386005065897],[-75.492460860302415,39.708458005134247],[-75.492413860446746,39.708515004587987],[-75.492367860415982,39.70856500476112],[-75.492311860339498,39.70862000484059],[-75.492138860087138,39.708784004829837],[-75.492058859721197,39.708862005084008],[-75.492035860154971,39.70888900467304],[-75.49202086008637,39.708910005037154],[-75.492010860040637,39.70893900526621],[-75.491999860169969,39.708959004940425],[-75.491980859903393,39.708978004625607],[-75.49195585978903,39.709004004877386],[-75.491939859895496,39.709026005189088],[-75.491745859726763,39.709281005117475],[-75.491703859893946,39.709341005207555],[-75.491637859771714,39.70945200475289],[-75.491594860114006,39.709517005262903],[-75.49155886012899,39.709583004995167],[-75.491517860121121,39.709653005249471],[-75.491490859458622,39.709703005288922],[-75.491476860113238,39.709732005184591],[-75.491464859519354,39.709766004927637],[-75.491451859998875,39.70981500491407],[-75.491389860074605,39.710088005484565],[-75.491337860196055,39.710360005011502],[-75.491334859823013,39.710381004927797],[-75.491331859449957,39.71040400545413],[-75.491331859449957,39.710428005243934],[-75.491332860173202,39.710442005405419],[-75.491338860020974,39.710468005105454],[-75.491365859785148,39.710517005284345],[-75.491404860143206,39.710561004935769],[-75.491479859587969,39.710615005537612],[-75.491522860143988,39.710638005294811],[-75.491561859603749,39.710654005331726],[-75.491814860222036,39.710754005305539],[-75.491834860313531,39.710766005486114],[-75.491847859833996,39.710778004973584],[-75.491850860207052,39.710789005193014],[-75.491850860207052,39.710799005453758],[-75.491847859833996,39.71081100562651],[-75.491828860465731,39.710847005441309],[-75.491817859696781,39.71086000556177],[-75.491805860001193,39.710867005253469],[-75.491791859757512,39.710867005253469],[-75.491770859841097,39.710861005517764],[-75.491659860411346,39.710827005623308],[-75.491570859824563,39.71081100562651],[-75.491549859908162,39.710812005583264],[-75.491526860341935,39.710815005453291],[-75.491509859725184,39.710818005323233],[-75.491477859938158,39.710835005274774],[-75.491460860219703,39.710850005309823],[-75.491383860226804,39.710916005148917],[-75.491274859548554,39.711010005711245],[-75.491146859502024,39.71112100533545],[-75.490989860041523,39.711255005714669],[-75.490590859833347,39.711689005579061],[-75.490573860114921,39.711719005274553],[-75.490569859916945,39.711741005411511],[-75.490571859566757,39.711752005477329],[-75.490579859962693,39.711785005664375],[-75.490593859308078,39.711851005299941],[-75.490593859308078,39.7118650058637],[-75.490593859308078,39.711886005321922],[-75.490589860008441,39.711912005859851],[-75.490576859589638,39.711937005756482],[-75.490206859693771,39.712386005868659],[-75.48992185928843,39.712781005576275],[-75.489635859058154,39.7131950056921],[-75.489601859621303,39.713240005630098],[-75.489583859179632,39.713259006209356],[-75.489297859847682,39.713546005811899],[-75.488766859395042,39.714040005923692],[-75.488617859432125,39.714190006068705],[-75.488596859515724,39.714219006151247],[-75.488564858830358,39.714271006149595],[-75.488507858928941,39.714371006408328],[-75.48842885928623,39.714557006476326],[-75.48842885928623,39.714574006197481],[-75.48842885928623,39.714593006409281],[-75.488436858783828,39.714614006419048],[-75.48845785959854,39.714667006020498],[-75.488431858760947,39.71468400640552],[-75.488397859324095,39.714708006088365],[-75.488385859628508,39.714716005980812],[-75.48817685939116,39.714744005942521],[-75.488051858819361,39.714744005942521],[-75.488006859511842,39.714803006219462],[-75.48798485887221,39.71479400643814],[-75.487970858628501,39.71479400643814],[-75.487937859016554,39.714806005915982],[-75.487364858731112,39.715291006270718],[-75.487287858738213,39.715345006624965],[-75.487238859232718,39.715367006296511],[-75.487028859170437,39.715462006210949],[-75.486447858489086,39.715715006763332],[-75.486281858807729,39.715777006555022],[-75.486127858821931,39.715830006644779],[-75.485983858881895,39.715868006371196],[-75.485845858789631,39.715894006790208],[-75.485714858370059,39.715909006416197],[-75.485605858590105,39.715916006286655],[-75.485492858612204,39.715917006860366],[-75.485343858649287,39.715906006767696],[-75.485109858297577,39.715856006387142],[-75.485069858114599,39.715846006859451],[-75.484788857907205,39.715747006551283],[-75.484423858034219,39.715595006562381],[-75.484103857468767,39.715454006405082],[-75.483884858083954,39.715371006550093],[-75.483834857855243,39.715357006697928],[-75.483626857442786,39.715296006420452],[-75.483572857914425,39.715266006207571],[-75.483538857579234,39.715227006256804],[-75.483515858013007,39.715157006821386],[-75.483468857259041,39.715061006591725],[-75.483433857997241,39.715018006251235],[-75.483253857173892,39.714859006751851],[-75.483217857188876,39.714821006469606],[-75.483199857645531,39.714798006725005],[-75.483128857500418,39.714710006579814],[-75.482938857529618,39.714420006578962],[-75.482699857155012,39.714126006415292],[-75.482651857474437,39.714076006126433],[-75.482598857770981,39.714025006582247],[-75.482537857671616,39.713979006554581],[-75.482435857564369,39.713903006381472],[-75.482416857297792,39.713892005967615],[-75.482344857327774,39.713852006018385],[-75.482260856763872,39.713803006135301],[-75.482185857319109,39.713767006481078],[-75.482116856823836,39.713744006385078],[-75.482009856693708,39.713717005932033],[-75.481884857020248,39.713694006510352],[-75.481758856623543,39.713689006244479],[-75.481622857079415,39.713682006148026],[-75.481052857167015,39.713675006050913],[-75.480535856958085,39.713666006122416],[-75.480517856516414,39.713668005953046],[-75.480482856356318,39.713671006389959],[-75.480399856515632,39.713683006063164],[-75.480333856393401,39.713692005989444],[-75.480290856735678,39.713692005989444],[-75.48019085627827,39.71368600649938],[-75.480009856528298,39.713671006389959],[-75.479959856299587,39.713667006037745],[-75.479853855994378,39.713666006122416],[-75.479729856145809,39.713673006220446],[-75.479362856623013,39.713714006188155],[-75.479278856059111,39.713729006288219],[-75.479223855807533,39.713744006385078],[-75.479176855951849,39.71376000639259],[-75.479130855921099,39.713775006482642],[-75.478824856497667,39.713879006418537],[-75.478799856383318,39.713906006117135],[-75.47877285572082,39.71392400660136],[-75.478633855803636,39.714008006725834],[-75.478578856450355,39.714048006584598],[-75.478531855696403,39.714082006273557],[-75.478493856061561,39.71411500672798],[-75.478463855924332,39.714144006151074],[-75.478434855612008,39.714175006759916],[-75.478410856220876,39.71420800647882],[-75.478387855756338,39.714236006646743],[-75.47836285564199,39.714268006429862],[-75.478274855778437,39.714363006475921],[-75.478244855641208,39.714394006295308],[-75.478225856272942,39.714423006292094],[-75.478123856165695,39.714614006419048],[-75.478109855922,39.714633006619835],[-75.47809685550321,39.714651006914345],[-75.478068855914117,39.714681006703692],[-75.47804685617281,39.714699006294651],[-75.477933856194909,39.714762006899043],[-75.477897856209893,39.714791006741095],[-75.477833855737458,39.714877006296362],[-75.477758856292724,39.714981006643818],[-75.477668855881035,39.715092006788488],[-75.477648855789539,39.715111006857612],[-75.477611855979617,39.715148006395225],[-75.477091855397632,39.715608006479087],[-75.476798855494678,39.715866006604358],[-75.476752855463914,39.715906006767696],[-75.476650855356667,39.715997007104697],[-75.476587855607463,39.716054007239478],[-75.476520855660311,39.716109006876302],[-75.476482855127173,39.716150006778037],[-75.476439855469479,39.716207006786391],[-75.476408855507316,39.716268006949193],[-75.476373855347234,39.71633800663907],[-75.476352855430832,39.716406007197698],[-75.476339855910354,39.716472007249045],[-75.476328855141389,39.716598007234438],[-75.47632785531647,39.716677006817228],[-75.476334855887487,39.716743007300209],[-75.476377855545181,39.717202007247565],[-75.476378855370115,39.717264007084545],[-75.476367855499447,39.717339007147253],[-75.476351855605927,39.717391006866421],[-75.476339855910354,39.717446007510105],[-75.476330855689525,39.717510007537982],[-75.476331855514431,39.717586007191692],[-75.476334855887487,39.717626007048537],[-75.476390855963984,39.717828007076733],[-75.476400856009718,39.717981007525331],[-75.476417855728158,39.718285007016497],[-75.476422855751039,39.718390007599993],[-75.476426855949001,39.718451007214078],[-75.476430855248637,39.718532007127941],[-75.476435855271518,39.718620007233696],[-75.476428855598826,39.7187060075426],[-75.476419855377983,39.718760007296147],[-75.476406855857505,39.71880600759021],[-75.476275855437947,39.719246007320876],[-75.476257855894588,39.719328007516253],[-75.476250855323585,39.71938700732693],[-75.476251856046801,39.719463007676161],[-75.476309855773124,39.720249007412193],[-75.476318855993952,39.720423007640626],[-75.476323856016833,39.720433007886633],[-75.476331855514431,39.720441007805974],[-75.476359856001849,39.72045000754143],[-75.476398855461582,39.720462008108129],[-75.476417855728158,39.720474007981771],[-75.476421855926105,39.720493007950232],[-75.476415856078333,39.720618007684692],[-75.47641085605548,39.720717007910629],[-75.476403855484463,39.720864007921122],[-75.476405856032599,39.720966007913439],[-75.47641085605548,39.721006007882785],[-75.476424855400865,39.721043007712879],[-75.476435856169843,39.721069008253863],[-75.476514855812539,39.721254007727701],[-75.476570855889037,39.721362008038923],[-75.476607855698973,39.721428008184247],[-75.476620856117748,39.721445008284732],[-75.476624856315723,39.721596008017862],[-75.476610856072014,39.721709008169199],[-75.476590855980533,39.721869008256391],[-75.476578856284959,39.721953008378129],[-75.476570855889037,39.722025008104929],[-75.47656585586617,39.722095008170264],[-75.476563856216345,39.72216000782182],[-75.476561855668209,39.722177008432809],[-75.476552856345691,39.722194008348644],[-75.476534855904021,39.722206007920903],[-75.476522856208462,39.722219007973372],[-75.4765188560105,39.72223300781458],[-75.4765188560105,39.7222530084711],[-75.476497856094099,39.722524007916775],[-75.476499855743924,39.72254500827551],[-75.476510855614578,39.722564008364316],[-75.476532856254195,39.722585008019919],[-75.476567855515995,39.722619008337183],[-75.47658185575969,39.722642008237479],[-75.476591855805424,39.722673008481451],[-75.476602855676092,39.722713008151615],[-75.476616855919787,39.722740008537734],[-75.476635856186363,39.72275100823137],[-75.476764856057798,39.722824008289386],[-75.476776855753357,39.722838008007763],[-75.476795856019933,39.722978008489605],[-75.476769856080665,39.723019008453534],[-75.476716856377223,39.723030008102668],[-75.476570855889037,39.723068008007736],[-75.476561855668209,39.72313300812398],[-75.476555855820408,39.723177008019157],[-75.476544855949783,39.723197008401876],[-75.476515855637444,39.723220008109372],[-75.476496856269193,39.723246008520469],[-75.476481856200579,39.723276008026033],[-75.476463855758908,39.723343008187314],[-75.476429856322042,39.723469008056483],[-75.476352856329143,39.7237690084634],[-75.476303855925352,39.723954008294001],[-75.476297856077551,39.724000008578209],[-75.476298855902471,39.724020008722228],[-75.476316856344127,39.724104008296507],[-75.476373856245544,39.724252008448978],[-75.476482856025484,39.724538008842579],[-75.476514855812539,39.724591008418052],[-75.476532856254195,39.724607008672997],[-75.476566855691075,39.724623008924169],[-75.47683085618003,39.724736008951659],[-75.476942856333025,39.724784008913431],[-75.477094856668998,39.724871008888485],[-75.477148856197346,39.724948008473092],[-75.477163856265975,39.724968008342138],[-75.477170855938652,39.724978008619921],[-75.477170855938652,39.725003008617186],[-75.477161856616149,39.725041008816767],[-75.477142856349573,39.725118008902463],[-75.477125856631133,39.725192008966502],[-75.47710185634169,39.725293009028526],[-75.477080856425289,39.725347008460581],[-75.476986855815639,39.725604009029119],[-75.476968856272308,39.725640008723119],[-75.476914855845621,39.725726008568557],[-75.47683085618003,39.725888009175016],[-75.476803856415856,39.725939008928925],[-75.476776856651682,39.725981008941751],[-75.476672855996284,39.726141008789256],[-75.476620856117748,39.72619700909722],[-75.476557856368572,39.726266008649247],[-75.476496856269193,39.726409008962904],[-75.476445856215577,39.726557009004189],[-75.476293855879604,39.726736009217824],[-75.476204856191146,39.726966009342753],[-75.476129855848072,39.727242008894507],[-75.475990855930903,39.72750100942897],[-75.475953856120967,39.727530009441566],[-75.475880856326043,39.727683009091777],[-75.475873855755026,39.727718009370442],[-75.475847855815772,39.727767009039816],[-75.475822855701409,39.72781400925399],[-75.475811855830756,39.727862009145625],[-75.475797855587047,39.727919009146305],[-75.475786855716393,39.727952009197828],[-75.475673855738492,39.728180009310918],[-75.475608856339491,39.728294009430186],[-75.47558485605002,39.728334009294031],[-75.475410855972768,39.728574009371435],[-75.475343856025617,39.728799009721556],[-75.475313855888373,39.728903009801016],[-75.475246855941222,39.729056009858674],[-75.475169855948337,39.729238009561833],[-75.475125855567413,39.729333009713294],[-75.475083855734624,39.72945500956309],[-75.475073855688862,39.72949600982087],[-75.475065856191279,39.729548009354545],[-75.475065856191279,39.72961700969816],[-75.475065856191279,39.729631009419037],[-75.475071856039051,39.729691009769674],[-75.475083855734624,39.729741009791709],[-75.47509985562813,39.729785009615284],[-75.475125855567413,39.729832009835484],[-75.47514785620703,39.729852009669528],[-75.475167856298526,39.729857009454442],[-75.475201855735392,39.729854009721748],[-75.475244856291411,39.729828009729772],[-75.47526985640576,39.729820009517709],[-75.475226855849755,39.729908009726813],[-75.475208856306395,39.729976010031265],[-75.47519585588762,39.730021010073948],[-75.475188856214913,39.730051010086079],[-75.475191855689658,39.730121009603067],[-75.47519385623778,39.730161009788596],[-75.475215855979087,39.730210009794298],[-75.475197855537431,39.730345010066856],[-75.475192856412875,39.730422009755912],[-75.475190855864739,39.730446009488929],[-75.475196855712511,39.730499010049883],[-75.475205855933353,39.730545010112657],[-75.475217855628912,39.730585010052174],[-75.475221855826874,39.730598009906636],[-75.475230856047716,39.730648009961662],[-75.475231855872607,39.730675010003971],[-75.475233856420758,39.73070700975893],[-75.475233856420758,39.730962009671934],[-75.475200855910472,39.731002010060351],[-75.475233856420758,39.731078010043568],[-75.475233856420758,39.731181009787143],[-75.475239856268544,39.731217010023371],[-75.475255856162065,39.731246009854601],[-75.475298855819773,39.731298010140826],[-75.475302856017734,39.731308010191356],[-75.475314855713293,39.731336010325172],[-75.475325856482272,39.731375010147161],[-75.475328855956988,39.731423010322906],[-75.475323855934136,39.731533009908766],[-75.475324855759027,39.731571009963574],[-75.475335856528005,39.73161401034573],[-75.475381856558755,39.731688010346204],[-75.475394856079234,39.73171401032748],[-75.475402856475156,39.73173300996222],[-75.475411855797688,39.731769009910181],[-75.475425856041383,39.731822010144846],[-75.475431855889155,39.731872010002959],[-75.47543085606425,39.731937010109789],[-75.475431855889155,39.732014010093174],[-75.475437855736942,39.73205400987117],[-75.475453856528787,39.732091009990604],[-75.475483855767692,39.732125010456244],[-75.475520856475939,39.732159010214318],[-75.475547856240112,39.732189009986847],[-75.475547856240112,39.73220100989225],[-75.475547856240112,39.732212010149077],[-75.47553985584419,39.732234009966668],[-75.475519855752708,39.732268010361778],[-75.475501856209362,39.732303010385294],[-75.475496856186481,39.732340010371026],[-75.47549585636159,39.732421010550588],[-75.475497856011401,39.732840010471641],[-75.475497856011401,39.732883010062224],[-75.475502856034268,39.732909010283628],[-75.475522856125764,39.73299401040768],[-75.475525856498791,39.733041010512487],[-75.475524856673886,39.733092010501849],[-75.475524856673886,39.733163010017755],[-75.475526856323711,39.733279010139846],[-75.475526856323711,39.733303010259846],[-75.475526856323711,39.733326010050384],[-75.475526856323711,39.733354010055322],[-75.475530856521672,39.733389010218218],[-75.475545856590301,39.733412010670904],[-75.475568856156514,39.733438010692787],[-75.475564855958552,39.733479010654236],[-75.475558856110766,39.733540010737059],[-75.475694856553204,39.733666010624042],[-75.475651855997171,39.733710010705742],[-75.475507856057135,39.733789010719221],[-75.475480856292961,39.733804010597872],[-75.475265856207798,39.733966010184538],[-75.475246855941222,39.73398001040384],[-75.475230856047716,39.734010010765587],[-75.475154855879723,39.734156010451301],[-75.475142856184164,39.734170010632013],[-75.475077855886823,39.734217010625862],[-75.474904856532774,39.734337010890982],[-75.474881856068251,39.734363010563968],[-75.474868856547772,39.734383010465145],[-75.474801855702296,39.734504010745304],[-75.474924855725959,39.73452301099266],[-75.474935856494923,39.734530010355293],[-75.475019856160529,39.734679010534947],[-75.475027856556437,39.734697010432839],[-75.475040856076916,39.734708010982196],[-75.475092855955452,39.73472701048248],[-75.475124856640818,39.734776010696727],[-75.475089856480707,39.734845010643213],[-75.475073856587187,39.73487201042331],[-75.474929855748826,39.735129010717095],[-75.474917856053253,39.735145010598877],[-75.47483185583954,39.735104010937555],[-75.474816855770911,39.735111010932009],[-75.474677855853756,39.735174010850052],[-75.474601855685762,39.735255010462687],[-75.474544855784359,39.735360010765582],[-75.474437855654244,39.735560010768374],[-75.474361856384562,39.735700010977673],[-75.474135856428759,39.736123010741082],[-75.474100856268663,39.736188010984151],[-75.474088855674765,39.736215010928895],[-75.474073855606164,39.736247010875374],[-75.473904855551766,39.736593011117719],[-75.473899855528884,39.73660401136447],[-75.473818856236363,39.73676901140108],[-75.473799855969773,39.736804011211554],[-75.473753855939023,39.736884011402346],[-75.473608856174067,39.737139011261291],[-75.473582856234799,39.737186011303002],[-75.473425855875959,39.737443011258179],[-75.473316856096019,39.737646011518343],[-75.473299855479269,39.737698011121317],[-75.473280856111003,39.737722011084209],[-75.473266855867308,39.737740011569031],[-75.473233856255348,39.737802011591057],[-75.473180855653581,39.737903011139828],[-75.473068855500571,39.738102011110307],[-75.473029856040839,39.73816901137031],[-75.472915855339707,39.738370011759393],[-75.472877855704866,39.738438011315004],[-75.472832855499036,39.738495011551088],[-75.472751855308175,39.73854401184969],[-75.472434856014104,39.738740011314057],[-75.472379855762512,39.738800011334732],[-75.472348855800362,39.738834011944945],[-75.47229485537369,39.738894011883787],[-75.472222855403672,39.738941011419413],[-75.472122855844546,39.739063011534242],[-75.47196585548572,39.739238011491807],[-75.471953855790161,39.739250011551547],[-75.471904855386342,39.739299012004096],[-75.471924855477852,39.739315011608639],[-75.471593855041718,39.739742011511517],[-75.471541855163196,39.739788011623062],[-75.471389855725548,39.739928011533387],[-75.471338855671931,39.739975011745415],[-75.471233855191613,39.740070011605781],[-75.470961855205076,39.740320011703297],[-75.470927854869871,39.740363012153658],[-75.470919855372259,39.740375012017509],[-75.470887855585204,39.740498011883084],[-75.470848855227146,39.740655011931757],[-75.470767855036286,39.740761011819529],[-75.470691854868306,39.740864012290629],[-75.47064185553792,39.74104001202852],[-75.470606855377824,39.741485012492646],[-75.470571855217713,39.741616011984021],[-75.47056085534706,39.741645012275399],[-75.470548855651487,39.741714012252721],[-75.470533855582886,39.741785012557685],[-75.470505855095482,39.741855012592133],[-75.470491854851787,39.74188601248602],[-75.470482855529255,39.741906012276431],[-75.470445854821008,39.741957012613732],[-75.47042185542989,39.741991012357147],[-75.470389854744511,39.742042012631543],[-75.470351855109683,39.742108012321125],[-75.470321854972468,39.742152012539542],[-75.470283855337641,39.742198012423906],[-75.470238855131782,39.742246012660935],[-75.470203854971686,39.742278012570097],[-75.47016985553482,39.742302012319541],[-75.470124855328976,39.742327012251124],[-75.470065854879422,39.742352012173647],[-75.469951855076616,39.742400012303406],[-75.46954085517288,39.742710012307178],[-75.469493855317197,39.742761012740189],[-75.469397855057736,39.742869012516728],[-75.469325855087718,39.743031012209528],[-75.469307854646047,39.74306901283277],[-75.469254854942605,39.743187012525865],[-75.469237855224165,39.743226012549783],[-75.46909685475886,39.743540012982962],[-75.473817856411429,39.746269012847222],[-75.477985857870067,39.748680013624295],[-75.486874860981288,39.753821014131802],[-75.488395861470892,39.754701014118631],[-75.489889862196335,39.755593014579055],[-75.49125486305033,39.756203014057249],[-75.491567863044764,39.756349014376411],[-75.491591862435911,39.756367014138945],[-75.491666862778985,39.756423014751128],[-75.491691862893333,39.756442014479866],[-75.491832862460342,39.756502014279484],[-75.492255862957947,39.756683014727948],[-75.492397863248158,39.756744014298832],[-75.492451862776534,39.756767014553205],[-75.49261386315824,39.756836014579676],[-75.492668863409804,39.756859014803325],[-75.492762863121143,39.756893014789576],[-75.493044863153457,39.756998014580283],[-75.493139863588013,39.757033014474921],[-75.493164863702376,39.75704701415156],[-75.49324186369526,39.757092014474154],[-75.493267863634543,39.757107014805349]]]},"properties":{"OBJECTID":12,"DISTRICT":"2","IDEAL_VALU":47124,"DEVIATION":-2307,"F_DEVIATIO":-0.049000000000000002,"NAME":"Darius J. Brown","PARTY":"D","LEGSESSION":"152","URL":"http://legis.delaware.gov/legislature.nsf/ByDistrict/Senator2","Shape__Area":125348799.333367,"Shape__Length":63017.966495390901,"ADJ_POPULA":44817,"ADJ_WHITE":11064,"ADJ_BLACK":26475,"ADJ_ASIAN":409,"ADJ_AMINDI":290,"ADJ_OTHER":3220,"F_ADJ_WHIT":0.24690000000000001,"F_ADJ_BLAC":0.5907,"F_ADJ_ASIA":0.0091000000000000004,"F_ADJ_AMIN":0.0065000000000000006,"F_ADJ_OTHE":0.071800000000000003,"DISTRICT_N":null,"DISTRICT_L":"2|-4.9%"}}]}